NORAD_CAT_ID,OBJECT_NAME,OBJECT_TYPE,EPOCH,MEAN_MOTION,ECCENTRICITY,INCLINATION,RA_OF_ASC_NODE,ARG_OF_PERICENTER,MEAN_ANOMALY,BSTAR,MEAN_MOTION_DOT,MEAN_MOTION_DDOT,TLE_LINE0,TLE_LINE1,TLE_LINE2,SEMIMAJOR_AXIS,PERIOD,APOGEE,PERIGEE,DECAYED
52281.0,STARLINK-3779,PAYLOAD,2022-08-28 14:00:01,15.08813667,0.0002231999999999,53.2174,136.1334,68.1812,340.8233,0.0026309,0.00041802,0.0,0 STARLINK-3779,1 52281U 22041W   22240.58334491  .00041802  00000-0  26309-2 0  9991,2 52281  53.2174 136.1334 0002232  68.1812 340.8233 15.08813667 20985,6917.9609999999975,95.439,541.37,538.2819999999998,0.0
52281.0,STARLINK-3779,PAYLOAD,2022-08-28 22:00:00,15.08851093,0.0002351,53.2175,134.6384,65.5519,355.029,-0.001797,-0.00028784,0.0,0 STARLINK-3779,1 52281U 22041W   22240.91667824 -.00028784  00000-0 -17970-2 0  9997,2 52281  53.2175 134.6384 0002351  65.5519 355.0290 15.08851093  1302,6917.846,95.437,541.3380000000002,538.085,0.0
52281.0,STARLINK-3779,PAYLOAD,2022-08-29 06:00:02,15.08840734,0.0002320999999999,53.2173,133.1423,61.6124,10.6254,-0.0019317999999999,-0.00030903,0.0,0 STARLINK-3779,1 52281U 22041W   22241.25002315 -.00030903  00000-0 -19318-2 0  9997,2 52281  53.2173 133.1423 0002321  61.6124  10.6254 15.08840734 21085,6917.878000000002,95.438,541.349,538.138,0.0
52281.0,STARLINK-3779,PAYLOAD,2022-08-29 14:00:01,15.08797058,0.0002195,53.2175,131.6442,67.5458,16.2205,0.0030599,0.0004868999999999,0.0,0 STARLINK-3779,1 52281U 22041W   22241.58334491  .00048690  00000-0  30599-2 0  9990,2 52281  53.2175 131.6442 0002195  67.5458  16.2205 15.08797058  1306,6918.012,95.44,541.395,538.3580000000002,0.0
52281.0,STARLINK-3779,PAYLOAD,2022-08-29 22:00:00,15.08837411,0.0002348,53.2175,130.1493,65.2107,30.1199,-0.0014088,-0.00022639,0.0,0 STARLINK-3779,1 52281U 22041W   22241.91667824 -.00022639  00000-0 -14088-2 0  9998,2 52281  53.2175 130.1493 0002348  65.2107  30.1199 15.08837411  1307,6917.888000000001,95.438,541.378,538.129,0.0
52281.0,STARLINK-3779,PAYLOAD,2022-08-30 14:00:01,15.08818532,0.0002268,53.2177,127.1551,69.1216,49.3868,0.0028414,0.00045197,0.0,0 STARLINK-3779,1 52281U 22041W   22242.58334491  .00045197  00000-0  28414-2 0  9993,2 52281  53.2177 127.1551 0002268  69.1216  49.3868 15.08818532 21282,6917.946,95.439,541.38,538.242,0.0
52281.0,STARLINK-3779,PAYLOAD,2022-08-30 22:00:00,15.08856529,0.0002376999999999,53.2177,125.6602,66.2192,63.8816,-0.0010301,-0.00016653,0.0,0 STARLINK-3779,1 52281U 22041W   22242.91667824 -.00016653  00000-0 -10301-2 0  9992,2 52281  53.2177 125.6602 0002377  66.2192  63.8816 15.08856529  1307,6917.83,95.437,541.339,538.05,0.0
52281.0,STARLINK-3779,PAYLOAD,2022-08-31 14:00:01,15.08813342,0.0002177,53.2177,122.6658,70.2009,83.1121,0.0026735,0.00042487,0.0,0 STARLINK-3779,1 52281U 22041W   22243.58334491  .00042487  00000-0  26735-2 0  9997,2 52281  53.2177 122.6658 0002177  70.2009  83.1121 15.08813342  1305,6917.962,95.439,541.3330000000002,538.321,0.0
52281.0,STARLINK-3779,PAYLOAD,2022-08-31 22:00:00,15.08843292,0.0002285,53.2177,121.171,66.7,98.195,-0.00087705,-0.00014221,0.0,0 STARLINK-3779,1 52281U 22041W   22243.91667824 -.00014221  00000-0 -87705-3 0  9995,2 52281  53.2177 121.1710 0002285  66.7000  98.1950 15.08843292  1302,6917.87,95.437,541.316,538.155,0.0
52281.0,STARLINK-3779,PAYLOAD,2022-09-01 14:00:01,15.08843467,0.0002126999999999,53.2176,118.1766,72.3298,115.8212,-0.00040471,-6.724e-05,0.0,0 STARLINK-3779,1 52281U 22041W   22244.58335648 -.00006724  00000-0 -40471-3 0  9993,2 52281  53.2176 118.1766 0002127  72.3298 115.8212 15.08843467 21589,6917.87,95.437,541.206,538.263,0.0
52281.0,STARLINK-3779,PAYLOAD,2022-09-01 22:00:00,15.0882823,0.0002174,53.2176,116.6819,67.462,132.2259,-0.00065388,-0.00010677,0.0,0 STARLINK-3779,1 52281U 22041W   22244.91667824 -.00010677  00000-0 -65388-3 0  9990,2 52281  53.2176 116.6819 0002174  67.4620 132.2259 15.08828230  1300,6917.916,95.438,541.285,538.2769999999998,0.0
52281.0,STARLINK-3779,PAYLOAD,2022-09-02 14:00:01,15.08819309,0.0002085,53.2174,113.6876,74.3077,148.5408,0.0020375,0.0003227,0.0,0 STARLINK-3779,1 52281U 22041W   22245.58334491  .00032270  00000-0  20375-2 0  9992,2 52281  53.2174 113.6876 0002085  74.3077 148.5408 15.08819309  1305,6917.944,95.439,541.251,538.366,0.0
52281.0,STARLINK-3779,PAYLOAD,2022-09-02 22:00:01,15.08835946,0.0002191999999999,53.2173,112.193,69.4941,165.0042,-0.00044016,-7.286e-05,0.0,0 STARLINK-3779,1 52281U 22041W   22245.91668981 -.00007286  00000-0 -44016-3 0  9993,2 52281  53.2173 112.1930 0002192  69.4941 165.0042 15.08835946 21780,6917.893,95.438,541.274,538.241,0.0
52281.0,STARLINK-3779,PAYLOAD,2022-09-03 14:00:01,15.08835526,0.0002109999999999,53.2172,109.1987,76.2201,181.4068,0.0020898,0.00033124,0.0,0 STARLINK-3779,1 52281U 22041W   22246.58334491  .00033124  00000-0  20898-2 0  9992,2 52281  53.2172 109.1987 0002110  76.2201 181.4068 15.08835526 21887,6917.894,95.438,541.219,538.299,0.0
52281.0,STARLINK-3779,PAYLOAD,2022-09-03 22:00:00,15.08861398,0.0002173,53.2173,107.7042,70.54899999999998,198.6833,-0.0022729,-0.00036302,0.0,0 STARLINK-3779,1 52281U 22041W   22246.91667824 -.00036302  00000-0 -22729-2 0  9996,2 52281  53.2173 107.7042 0002173  70.5490 198.6833 15.08861398  1301,6917.815,95.436,541.183,538.177,0.0
52281.0,STARLINK-3779,PAYLOAD,2022-09-04 06:00:00,15.08851417,0.0002044999999999,53.2172,106.2072,69.7958,211.0472,-0.0018659,-0.00029871,0.0,0 STARLINK-3779,1 52281U 22041W   22247.25001157 -.00029871  00000-0 -18659-2 0  9995,2 52281  53.2172 106.2072 0002045  69.7958 211.0472 15.08851417 21980,6917.845,95.437,541.125,538.2959999999998,0.0
52281.0,STARLINK-3779,PAYLOAD,2022-09-04 14:00:01,15.08832432,0.0002029999999999,53.2174,104.7097,75.9782,216.5243,0.0020677,0.00032766,0.0,0 STARLINK-3779,1 52281U 22041W   22247.58335648  .00032766  00000-0  20677-2 0  9994,2 52281  53.2174 104.7097 0002030  75.9782 216.5243 15.08832432  1306,6917.904,95.438,541.173,538.364,0.0
52281.0,STARLINK-3779,PAYLOAD,2022-09-04 20:00:01,15.08869171,0.0002052,53.2174,103.589,70.9713,140.1705,-0.0033835,-0.00053779,0.0,0 STARLINK-3779,1 52281U 22041W   22247.83334491 -.00053779  00000-0 -33835-2 0  9996,2 52281  53.2174 103.5890 0002052  70.9713 140.1705 15.08869171 22079,6917.791,95.436,541.076,538.237,0.0
52281.0,STARLINK-3779,PAYLOAD,2022-09-05 06:00:00,15.08855624,0.0001956999999999,53.2175,101.7181,68.5463,247.0987,-0.0016163,-0.00025931,0.0,0 STARLINK-3779,1 52281U 22041W   22248.25001157 -.00025931  00000-0 -16163-2 0  9997,2 52281  53.2175 101.7181 0001957  68.5463 247.0987 15.08855624 22135,6917.833000000001,95.437,541.0509999999998,538.344,0.0
52281.0,STARLINK-3779,PAYLOAD,2022-09-05 14:00:01,15.08853636,0.0001902,53.2178,100.2208,74.3622,252.8835,-0.00087444,-0.00014183,0.0,0 STARLINK-3779,1 52281U 22041W   22248.58334491 -.00014183  00000-0 -87444-3 0  9991,2 52281  53.2178 100.2208 0001902  74.3622 252.8835 15.08853636  1307,6917.839,95.437,541.019,538.388,0.0
52281.0,STARLINK-3779,PAYLOAD,2022-09-05 22:00:00,15.08833743,0.0001937,53.2179,98.7264,66.6861,272.161,-0.0016582,-0.00026577,0.0,0 STARLINK-3779,1 52281U 22041W   22248.91667824 -.00026577  00000-0 -16582-2 0  9991,2 52281  53.2179  98.7264 0001937  66.6861 272.1610 15.08833743  1301,6917.9,95.438,541.105,538.425,0.0
52281.0,STARLINK-3779,PAYLOAD,2022-09-06 06:00:00,15.08826781,0.0001791,53.218,97.2292,66.5149,283.9104,-0.0016571,-0.00026555,0.0,0 STARLINK-3779,1 52281U 22041W   22249.25001157 -.00026555  00000-0 -16571-2 0  9994,2 52281  53.2180  97.2292 0001791  66.5149 283.9104 15.08826781 22286,6917.920999999999,95.438,541.025,538.547,0.0
52281.0,STARLINK-3779,PAYLOAD,2022-09-06 14:00:01,15.08813878,0.0001797,53.2183,95.7321,72.6834,289.3051,0.0016975,0.00026812,0.0,0 STARLINK-3779,1 52281U 22041W   22249.58334491  .00026812  00000-0  16975-2 0  9992,2 52281  53.2183  95.7321 0001797  72.6834 289.3051 15.08813878  1304,6917.96,95.439,541.068,538.582,0.0
52281.0,STARLINK-3779,PAYLOAD,2022-09-06 22:00:00,15.08811594,0.000179,53.2183,94.2375,60.6516,312.9499,0.0009392999999999,0.00014681,0.0,0 STARLINK-3779,1 52281U 22041W   22249.91667824  .00014681  00000-0  93930-3 0  9996,2 52281  53.2183  94.2375 0001790  60.6516 312.9499 15.08811594 22387,6917.967,95.439,541.071,538.594,0.0
52281.0,STARLINK-3779,PAYLOAD,2022-09-07 14:00:01,15.08835573,0.0001665999999999,53.2186,91.2432,67.9382,328.8162,0.0011377,0.00017863,0.0,0 STARLINK-3779,1 52281U 22041W   22250.58334491  .00017863  00000-0  11377-2 0  9991,2 52281  53.2186  91.2432 0001666  67.9382 328.8162 15.08835573  1309,6917.894,95.438,540.911,538.606,0.0
52281.0,STARLINK-3779,PAYLOAD,2022-09-07 22:00:00,15.08839829,0.0001761,53.2185,89.7486,60.306,348.0445,-0.00057892,-9.49e-05,0.0,0 STARLINK-3779,1 52281U 22041W   22250.91667824 -.00009490  00000-0 -57892-3 0  9999,2 52281  53.2185  89.7486 0001761  60.3060 348.0445 15.08839829  1301,6917.880999999999,95.438,540.964,538.528,0.0
52281.0,STARLINK-3779,PAYLOAD,2022-09-08 06:00:00,15.08839348,0.0001587,53.2183,88.2509,62.275,357.6725,-0.0019539,-0.00031249,0.0,0 STARLINK-3779,1 52281U 22041W   22251.25001157 -.00031249  00000-0 -19539-2 0  9990,2 52281  53.2183  88.2509 0001587  62.2750 357.6725 15.08839348 22599,6917.882,95.438,540.845,538.65,0.0
52281.0,STARLINK-3779,PAYLOAD,2022-09-08 14:00:01,15.08831695,0.0001553,53.2185,86.7541,67.4652,4.0581,0.00058325,9.005e-05,0.0,0 STARLINK-3779,1 52281U 22041W   22251.58334491  .00009005  00000-0  58325-3 0  9996,2 52281  53.2185  86.7541 0001553  67.4652   4.0581 15.08831695  1307,6917.906,95.438,540.845,538.696,0.0
52281.0,STARLINK-3779,PAYLOAD,2022-09-08 22:00:00,15.08821298,0.0001666999999999,53.2183,85.2594,59.7438,23.3729,0.0017004,0.00026864,0.0,0 STARLINK-3779,1 52281U 22041W   22251.91667824  .00026864  00000-0  17004-2 0  9992,2 52281  53.2183  85.2594 0001667  59.7438  23.3729 15.08821298 22690,6917.938,95.439,540.956,538.649,0.0
